GPS BIIR-2  (PRN 13)    
1 24876C 97035A   20253.69756944 -.00000000  00000-0  00000-0 0  2537
2 24876  55.4596 180.8670 0042758  58.3565 301.0184  2.00561542    14
GPS BIIR-3  (PRN 11)    
1 25933C 99055A   20253.69756944 -.00000000  00000-0  00000-0 0  2536
2 25933  52.3392  26.3815 0157373 117.1535 182.1584  2.00557952    17
GPS BIIR-4  (PRN 20)    
1 26360C 00025A   20253.69756944 -.00000000  00000-0  00000-0 0  2530
2 26360  53.5785 105.6659 0054903 156.9195 181.8498  2.00565052    16
GPS BIIR-5  (PRN 28)    
1 26407C 00040A   20253.69756944  .00000000  00000-0  00000-0 0  2538
2 26407  55.9321 298.8490 0186671 279.8376  20.7689  2.00565073    18
GPS BIIR-8  (PRN 16)    
1 27663C 03005A   20253.69756944  .00000000  00000-0  00000-0 0  2537
2 27663  55.9871 298.6388 0113819  35.0766  27.1688  2.00576402    14
GPS BIIR-9  (PRN 21)    
1 27704C 03010A   20253.69756944 -.00000000  00000-0  00000-0 0  2530
2 27704  54.6840  49.5620 0239820 285.7633  36.1769  2.00404196    12
GPS BIIR-10 (PRN 22)    
1 28129C 03058A   20253.69756944 -.00000000  00000-0  00000-0 0  2534
2 28129  53.3890 108.3654 0069664 296.5272 281.9087  2.00555880    12
GPS BIIR-11 (PRN 19)    
1 28190C 04009A   20253.69756944  .00000000  00000-0  00000-0 0  2538
2 28190  56.2620 359.4524 0090494  98.3871 119.6709  2.00561281    16
GPS BIIR-13 (PRN 02)    
1 28474C 04045A   20253.69756944 -.00000000  00000-0  00000-0 0  2534
2 28474  55.0263  49.4666 0200302 267.9217 226.3380  2.00552262    13
GPS BIIRM-1 (PRN 17)    
1 28874C 05038A   20253.69756944  .00000000  00000-0  00000-0 0  2530
2 28874  56.3599 356.8470 0136608 266.1984 331.0391  2.00555113    14
GPS BIIRM-2 (PRN 31)    
1 29486C 06042A   20253.69756944  .00000000  00000-0  00000-0 0  2536
2 29486  54.8404 235.0115 0096218   7.6202 155.3358  2.00566240    12
GPS BIIRM-3 (PRN 12)    
1 29601C 06052A   20253.69756944  .00000000  00000-0  00000-0 0  2536
2 29601  55.9761 297.5591 0076814  66.4074 133.4956  2.00568909    15
GPS BIIRM-4 (PRN 15)    
1 32260C 07047A   20253.69756944 -.00000000  00000-0  00000-0 0  2537
2 32260  53.1964 167.3026 0125507  51.8020 287.7097  2.00554710    19
GPS BIIRM-5 (PRN 29)    
1 32384C 07062A   20253.69756944  .00000000  00000-0  00000-0 0  2530
2 32384  56.4582 357.5311 0014255 132.4688 337.2733  2.00555090    11
GPS BIIRM-6 (PRN 07)    
1 32711C 08012A   20253.69756944  .00000000  00000-0  00000-0 0  2530
2 32711  54.5885 234.0955 0143811 224.9949 172.0780  2.00566924    16
GPS BIIRM-8 (PRN 05)    
1 35752C 09043A   20253.69756944 -.00000000  00000-0  00000-0 0  2534
2 35752  54.6354 111.6243 0059383  48.0239  20.8796  2.00557206    13
GPS BIIF-1  (PRN 25)    
1 36585C 10022A   20253.69756944  .00000000  00000-0  00000-0 0  2537
2 36585  55.2500 293.5341 0089089  52.7517 119.8009  2.00556379    10
GPS BIIF-2  (PRN 01)    
1 37753C 11036A   20253.69756944 -.00000000  00000-0  00000-0 0  2532
2 37753  56.2342  53.9609 0099293  46.3537 213.7053  2.00561079    13
GPS BIIF-3  (PRN 24)    
1 38833C 12053A   20253.69756944  .00000000  00000-0  00000-0 0  2531
2 38833  53.6325 229.8607 0099012  37.6412 231.2225  2.00567324    16
GPS BIIF-4  (PRN 27)    
1 39166C 13023A   20253.69756944  .00000000  00000-0  00000-0 0  2539
2 39166  56.0178 353.4632 0082123  31.7635 338.1472  2.00564586    16
GPS BIIF-5  (PRN 30)    
1 39533C 14008A   20253.69756944  .00000000  00000-0  00000-0 0  2531
2 39533  53.7455 235.3036 0048691 201.6469 168.0242  2.00572451    12
GPS BIIF-6  (PRN 06)    
1 39741C 14026A   20253.69756944 -.00000000  00000-0  00000-0 0  2533
2 39741  56.2073  53.4882 0019852 292.9999 235.4923  2.00571716    11
GPS BIIF-7  (PRN 09)    
1 40105C 14045A   20253.69756944 -.00000000  00000-0  00000-0 0  2530
2 40105  54.5966 172.5870 0015108 102.4550 359.1904  2.00565012    12
GPS BIIF-8  (PRN 03)    
1 40294C 14068A   20253.69756944 -.00000000  00000-0  00000-0 0  2534
2 40294  55.3847 113.5342 0030509  46.2826 150.2489  2.00554855    11
GPS BIIF-9  (PRN 26)    
1 40534C 15013A   20253.69756944  .00000000  00000-0  00000-0 0  2531
2 40534  54.1632 291.3997 0048744   8.7573  89.8098  2.00563518    19
GPS BIIF-10 (PRN 08)    
1 40730C 15033A   20253.69756944  .00000000  00000-0  00000-0 0  2531
2 40730  55.5324 352.5961 0054612 353.8250 347.5023  2.00558936    18
GPS BIIF-11 (PRN 10)    
1 41019C 15062A   20253.69756944 -.00000000  00000-0  00000-0 0  2535
2 41019  55.3806 113.3626 0059660 209.4689  95.9097  2.00564512    15
GPS BIIF-12 (PRN 32)    
1 41328C 16007A   20253.69756944 -.00000000  00000-0  00000-0 0  2538
2 41328  54.8305 173.0953 0042748 222.1172  13.7771  2.00553982    16
GPS BIII-1  (PRN 04)    
1 43873C 18109A   20253.69756944 -.00000000  00000-0  00000-0 0  2530
2 43873  55.0119 175.3798 0009119 211.7466 280.4988  2.00567983    15
GPS BIII-2  (PRN 18)    
1 44506C 19056A   20253.69756944 -.00000000  00000-0  00000-0 0  2536
2 44506  55.2958  54.8575 0009292 168.9156 225.6910  2.00559575    11
GPS BIII-3  (PRN 23)    
1 45854C 20041A   20253.69756944 -.00000000  00000-0  00000-0 0  2539
2 45854  55.0896 112.0969 0007792 109.0503 221.9358  2.00570642    19
